[
    {
        "Altitude(m)": 554256.0698823336,
        "Argument of Periapsis(deg)": 0.0,
        "Eccentricity": 0.0,
        "Inclination(deg)": 53.0,
        "Latitude(deg)": -0.07935951445019945,
        "Longitude(deg)": -159.9098225077118,
        "Mean Anomaly(deg)": 179.99999999999997,
        "RAAN(deg)": 120.0,
        "Satellite Name": "Starlink Shell 1 539",
        "Satellite Number": 539,
        "Semi-Major Axis(m)": 6931778.249405717,
        "Time(s)": 0
    },
    {
        "Altitude(m)": 554323.2812639258,
        "Argument of Periapsis(deg)": 0.00034857847951123687,
        "Eccentricity": 0.0,
        "Inclination(deg)": 53.0,
        "Latitude(deg)": -0.5832877758725856,
        "Longitude(deg)": -159.57444609561688,
        "Mean Anomaly(deg)": 180.62683120355672,
        "RAAN(deg)": 119.99948122992252,
        "Satellite Name": "Starlink Shell 1 539",
        "Satellite Number": 539,
        "Semi-Major Axis(m)": 6931778.249405717,
        "Time(s)": 10
    },
    {
        "Altitude(m)": 554393.2786657201,
        "Argument of Periapsis(deg)": 0.0006971569590224737,
        "Eccentricity": 0.0,
        "Inclination(deg)": 53.0,
        "Latitude(deg)": -1.0871799755944245,
        "Longitude(deg)": -159.23901003038773,
        "Mean Anomaly(deg)": 181.25366240711347,
        "RAAN(deg)": 119.99896245984505,
        "Satellite Name": "Starlink Shell 1 539",
        "Satellite Number": 539,
        "Semi-Major Axis(m)": 6931778.249405717,
        "Time(s)": 20
    },
    {
        "Altitude(m)": 554466.0518519466,
        "Argument of Periapsis(deg)": 0.0010457354385337105,
        "Eccentricity": 0.0,
        "Inclination(deg)": 53.0,
        "Latitude(deg)": -1.5910132115602988,
        "Longitude(deg)": -158.90345676349176,
        "Mean Anomaly(deg)": 181.88049361067016,
        "RAAN(deg)": 119.99844368976757,
        "Satellite Name": "Starlink Shell 1 539",
        "Satellite Number": 539,
        "Semi-Major Axis(m)": 6931778.249405717,
        "Time(s)": 30
    },
    {
        "Altitude(m)": 554541.5892360882,
        "Argument of Periapsis(deg)": 0.0013943139180449475,
        "Eccentricity": 0.0,
        "Inclination(deg)": 53.0,
        "Latitude(deg)": -2.094764560297957,
        "Longitude(deg)": -158.56772819336211,
        "Mean Anomaly(deg)": 182.50732481422682,
        "RAAN(deg)": 119.9979249196901,
        "Satellite Name": "Starlink Shell 1 539",
        "Satellite Number": 539,
        "Semi-Major Axis(m)": 6931778.249405717,
        "Time(s)": 40
    },
    {
        "Altitude(m)": 554619.8778839129,
        "Argument of Periapsis(deg)": 0.0017428923975561844,
        "Eccentricity": 0.0,
        "Inclination(deg)": 53.0,
        "Latitude(deg)": -2.598411065206293,
        "Longitude(deg)": -158.23176664874336,
        "Mean Anomaly(deg)": 183.13415601778357,
        "RAAN(deg)": 119.99740614961262,
        "Satellite Name": "Starlink Shell 1 539",
        "Satellite Number": 539,
        "Semi-Major Axis(m)": 6931778.249405717,
        "Time(s)": 50
    },
    {
        "Altitude(m)": 554700.9035171774,
        "Argument of Periapsis(deg)": 0.002091470877067421,
        "Eccentricity": 0.0,
        "Inclination(deg)": 53.0,
        "Latitude(deg)": -3.1019297248127695,
        "Longitude(deg)": -157.89551435914493,
        "Mean Anomaly(deg)": 183.76098722134037,
        "RAAN(deg)": 119.99688737953517,
        "Satellite Name": "Starlink Shell 1 539",
        "Satellite Number": 539,
        "Semi-Major Axis(m)": 6931778.249405717,
        "Time(s)": 60
    },
    {
        "Altitude(m)": 554784.6505180032,
        "Argument of Periapsis(deg)": 0.0024400493565786582,
        "Eccentricity": 0.0,
        "Inclination(deg)": 53.0,
        "Latitude(deg)": -3.605297480986561,
        "Longitude(deg)": -157.55891292526866,
        "Mean Anomaly(deg)": 184.38781842489698,
        "RAAN(deg)": 119.99636860945769,
        "Satellite Name": "Starlink Shell 1 539",
        "Satellite Number": 539,
        "Semi-Major Axis(m)": 6931778.249405717,
        "Time(s)": 70
    },
    {
        "Altitude(m)": 554871.1019339187,
        "Argument of Periapsis(deg)": 0.002788627836089895,
        "Eccentricity": 0.0,
        "Inclination(deg)": 53.0,
        "Latitude(deg)": -4.108491207093801,
        "Longitude(deg)": -157.2219043022758,
        "Mean Anomaly(deg)": 185.0146496284537,
        "RAAN(deg)": 119.99584983938021,
        "Satellite Name": "Starlink Shell 1 539",
        "Satellite Number": 539,
        "Semi-Major Axis(m)": 6931778.249405717,
        "Time(s)": 80
    },
    {
        "Altitude(m)": 554960.2394835658,
        "Argument of Periapsis(deg)": 0.0031372063156011316,
        "Eccentricity": 0.0,
        "Inclination(deg)": 53.0,
        "Latitude(deg)": -4.611487696087116,
        "Longitude(deg)": -156.88443027014154,
        "Mean Anomaly(deg)": 185.6414808320104,
        "RAAN(deg)": 119.99533106930274,
        "Satellite Name": "Starlink Shell 1 539",
        "Satellite Number": 539,
        "Semi-Major Axis(m)": 6931778.249405717,
        "Time(s)": 90
    },
    {
        "Altitude(m)": 555052.0435630992,
        "Argument of Periapsis(deg)": 0.0034857847951123688,
        "Eccentricity": 0.0,
        "Inclination(deg)": 53.0,
        "Latitude(deg)": -5.11426364851822,
        "Longitude(deg)": -156.54643190396172,
        "Mean Anomaly(deg)": 186.26831203556716,
        "RAAN(deg)": 119.99481229922527,
        "Satellite Name": "Starlink Shell 1 539",
        "Satellite Number": 539,
        "Semi-Major Axis(m)": 6931778.249405717,
        "Time(s)": 100
    },
    {
        "Altitude(m)": 555146.4932532107,
        "Argument of Periapsis(deg)": 0.003834363274623606,
        "Eccentricity": 0.0,
        "Inclination(deg)": 53.0,
        "Latitude(deg)": -5.6167956604569715,
        "Longitude(deg)": -156.2078505570808,
        "Mean Anomaly(deg)": 186.89514323912385,
        "RAAN(deg)": 119.99429352914778,
        "Satellite Name": "Starlink Shell 1 539",
        "Satellite Number": 539,
        "Semi-Major Axis(m)": 6931778.249405717,
        "Time(s)": 110
    },
    {
        "Altitude(m)": 555243.5663268318,
        "Argument of Periapsis(deg)": 0.004182941754134842,
        "Eccentricity": 0.0,
        "Inclination(deg)": 53.0,
        "Latitude(deg)": -6.119060211312843,
        "Longitude(deg)": -155.86862733128626,
        "Mean Anomaly(deg)": 187.52197444268057,
        "RAAN(deg)": 119.99377475907032,
        "Satellite Name": "Starlink Shell 1 539",
        "Satellite Number": 539,
        "Semi-Major Axis(m)": 6931778.249405717,
        "Time(s)": 120
    },
    {
        "Altitude(m)": 555343.2392574847,
        "Argument of Periapsis(deg)": 0.004531520233646079,
        "Eccentricity": 0.0,
        "Inclination(deg)": 53.0,
        "Latitude(deg)": -6.621033651542696,
        "Longitude(deg)": -155.52870254694,
        "Mean Anomaly(deg)": 188.1488056462373,
        "RAAN(deg)": 119.99325598899286,
        "Satellite Name": "Starlink Shell 1 539",
        "Satellite Number": 539,
        "Semi-Major Axis(m)": 6931778.249405717,
        "Time(s)": 130
    },
    {
        "Altitude(m)": 555445.4872282934,
        "Argument of Periapsis(deg)": 0.0048800987131573164,
        "Eccentricity": 0.0,
        "Inclination(deg)": 53.0,
        "Latitude(deg)": -7.122692190232607,
        "Longitude(deg)": -155.1880167259128,
        "Mean Anomaly(deg)": 188.77563684979398,
        "RAAN(deg)": 119.99273721891538,
        "Satellite Name": "Starlink Shell 1 539",
        "Satellite Number": 539,
        "Semi-Major Axis(m)": 6931778.249405717,
        "Time(s)": 140
    },
    {
        "Altitude(m)": 555550.2841416126,
        "Argument of Periapsis(deg)": 0.005228677192668553,
        "Eccentricity": 0.0,
        "Inclination(deg)": 53.0,
        "Latitude(deg)": -7.624011882545882,
        "Longitude(deg)": -154.8465100615721,
        "Mean Anomaly(deg)": 189.40246805335076,
        "RAAN(deg)": 119.9922184488379,
        "Satellite Name": "Starlink Shell 1 539",
        "Satellite Number": 539,
        "Semi-Major Axis(m)": 6931778.249405717,
        "Time(s)": 150
    },
    {
        "Altitude(m)": 555657.6026293273,
        "Argument of Periapsis(deg)": 0.00557725567217979,
        "Eccentricity": 0.0,
        "Inclination(deg)": 53.0,
        "Latitude(deg)": -8.124968617023749,
        "Longitude(deg)": -154.5041218886929,
        "Mean Anomaly(deg)": 190.02929925690745,
        "RAAN(deg)": 119.99169967876044,
        "Satellite Name": "Starlink Shell 1 539",
        "Satellite Number": 539,
        "Semi-Major Axis(m)": 6931778.249405717,
        "Time(s)": 160
    },
    {
        "Altitude(m)": 555767.4140637782,
        "Argument of Periapsis(deg)": 0.0059258341516910265,
        "Eccentricity": 0.0,
        "Inclination(deg)": 53.0,
        "Latitude(deg)": -8.625538102724823,
        "Longitude(deg)": -154.16079166616095,
        "Mean Anomaly(deg)": 190.65613046046417,
        "RAAN(deg)": 119.99118090868295,
        "Satellite Name": "Starlink Shell 1 539",
        "Satellite Number": 539,
        "Semi-Major Axis(m)": 6931778.249405717,
        "Time(s)": 170
    },
    {
        "Altitude(m)": 555879.688569286,
        "Argument of Periapsis(deg)": 0.006274412631202263,
        "Eccentricity": 0.0,
        "Inclination(deg)": 53.0,
        "Latitude(deg)": -9.125695856194993,
        "Longitude(deg)": -153.81645844672138,
        "Mean Anomaly(deg)": 191.28296166402086,
        "RAAN(deg)": 119.99066213860549,
        "Satellite Name": "Starlink Shell 1 539",
        "Satellite Number": 539,
        "Semi-Major Axis(m)": 6931778.249405717,
        "Time(s)": 180
    }
]